{
  "type": "FeatureCollection",
  "features": [
    {
      "type": "Feature",
      "properties": {
        "norad_id": 33886,
        "name": "IRIDIUM 33 DEB",
        "group": "iridium-33-debris",
        "lat": 71.04830811090626,
        "lon": 78.6643967687496,
        "alt_km": 773.5124699357093,
        "timestamp": "2025-12-10T18:57:00.450143+00:00",
        "meta_object_name": "IRIDIUM 33 DEB",
        "meta_object_id": "1997-051BF",
        "meta_epoch": "2025-12-10T11:58:44.158944",
        "meta_mean_motion": 14.36047962,
        "meta_eccentricity": 0.0012175,
        "meta_inclination": 86.383,
        "meta_ra_of_asc_node": 68.1718,
        "meta_arg_of_pericenter": 250.4448,
        "meta_mean_anomaly": 120.2843,
        "meta_ephemeris_type": 0,
        "meta_classification_type": "U",
        "meta_norad_cat_id": 33886,
        "meta_element_set_no": 999,
        "meta_rev_at_epoch": 88020,
        "meta_bstar": 0.00032782,
        "meta_mean_motion_dot": 9.73e-06,
        "meta_mean_motion_ddot": 0,
        "tle_line1": "1 33886U 97051BF  25344.49912221  .00000973  00000+0  32782-3 0  9991",
        "tle_line2": "2 33886  86.3830  68.1718 0012175 250.4448 120.2843 14.36047962880202"
      },
      "geometry": {
        "type": "Point",
        "coordinates": [
          78.6643967687496,
          71.04830811090626
        ]
      }
    },
    {
      "type": "Feature",
      "properties": {
        "norad_id": 33887,
        "name": "IRIDIUM 33 DEB",
        "group": "iridium-33-debris",
        "lat": -0.6008263154546719,
        "lon": 4.193966240442451,
        "alt_km": 772.5213774240856,
        "timestamp": "2025-12-10T18:57:00.450153+00:00",
        "meta_object_name": "IRIDIUM 33 DEB",
        "meta_object_id": "1997-051BG",
        "meta_epoch": "2025-12-10T09:13:38.157024",
        "meta_mean_motion": 14.37217786,
        "meta_eccentricity": 0.0004256,
        "meta_inclination": 86.3045,
        "meta_ra_of_asc_node": 4.4073,
        "meta_arg_of_pericenter": 237.1767,
        "meta_mean_anomaly": 187.5472,
        "meta_ephemeris_type": 0,
        "meta_classification_type": "U",
        "meta_norad_cat_id": 33887,
        "meta_element_set_no": 999,
        "meta_rev_at_epoch": 88131,
        "meta_bstar": 0.0002235,
        "meta_mean_motion_dot": 6.85e-06,
        "meta_mean_motion_ddot": 0,
        "tle_line1": "1 33887U 97051BG  25344.38446941  .00000685  00000+0  22350-3 0  9991",
        "tle_line2": "2 33887  86.3045   4.4073 0004256 237.1767 187.5472 14.37217786881316"
      },
      "geometry": {
        "type": "Point",
        "coordinates": [
          4.193966240442451,
          -0.6008263154546719
        ]
      }
    },
    {
      "type": "Feature",
      "properties": {
        "norad_id": 33953,
        "name": "IRIDIUM 33 DEB",
        "group": "iridium-33-debris",
        "lat": 85.90940503254807,
        "lon": 116.78272464653183,
        "alt_km": 688.6862255581082,
        "timestamp": "2025-12-10T18:57:00.450164+00:00",
        "meta_object_name": "IRIDIUM 33 DEB",
        "meta_object_id": "1997-051BN",
        "meta_epoch": "2025-12-09T23:18:17.054208",
        "meta_mean_motion": 14.5527898,
        "meta_eccentricity": 0.00184582,
        "meta_inclination": 86.384,
        "meta_ra_of_asc_node": 54.9808,
        "meta_arg_of_pericenter": 111.2598,
        "meta_mean_anomaly": 11.2257,
        "meta_ephemeris_type": 0,
        "meta_classification_type": "U",
        "meta_norad_cat_id": 33953,
        "meta_element_set_no": 999,
        "meta_rev_at_epoch": 88263,
        "meta_bstar": 0.0016887129,
        "meta_mean_motion_dot": 7.353e-05,
        "meta_mean_motion_ddot": 0,
        "tle_line1": "1 33953U 97051BN  25343.97103072  .00007353  00000+0  16887-2 0  9990",
        "tle_line2": "2 33953  86.3840  54.9808 0018458 111.2598  11.2257 14.55278980882635"
      },
      "geometry": {
        "type": "Point",
        "coordinates": [
          116.78272464653183,
          85.90940503254807
        ]
      }
    },
    {
      "type": "Feature",
      "properties": {
        "norad_id": 33960,
        "name": "IRIDIUM 33 DEB",
        "group": "iridium-33-debris",
        "lat": 43.25303795260713,
        "lon": -66.03185914578143,
        "alt_km": 605.170287848784,
        "timestamp": "2025-12-10T18:57:00.450175+00:00",
        "meta_object_name": "IRIDIUM 33 DEB",
        "meta_object_id": "1997-051BV",
        "meta_epoch": "2025-12-10T08:09:24.835392",
        "meta_mean_motion": 14.84978934,
        "meta_eccentricity": 0.0007472,
        "meta_inclination": 86.2534,
        "meta_ra_of_asc_node": 290.6456,
        "meta_arg_of_pericenter": 66.0574,
        "meta_mean_anomaly": 94.8264,
        "meta_ephemeris_type": 0,
        "meta_classification_type": "U",
        "meta_norad_cat_id": 33960,
        "meta_element_set_no": 999,
        "meta_rev_at_epoch": 88831,
        "meta_bstar": 0.0048552,
        "meta_mean_motion_dot": 0.00041622,
        "meta_mean_motion_ddot": 0,
        "tle_line1": "1 33960U 97051BV  25344.33987078  .00041622  00000+0  48552-2 0  9996",
        "tle_line2": "2 33960  86.2534 290.6456 0007472  66.0574  94.8264 14.84978934888319"
      },
      "geometry": {
        "type": "Point",
        "coordinates": [
          -66.03185914578143,
          43.25303795260713
        ]
      }
    },
    {
      "type": "Feature",
      "properties": {
        "norad_id": 33966,
        "name": "IRIDIUM 33 DEB",
        "group": "iridium-33-debris",
        "lat": -74.02392492488919,
        "lon": -120.40503216461201,
        "alt_km": 731.8576130198971,
        "timestamp": "2025-12-10T18:57:00.450185+00:00",
        "meta_object_name": "IRIDIUM 33 DEB",
        "meta_object_id": "1997-051CB",
        "meta_epoch": "2025-12-10T11:13:12.353376",
        "meta_mean_motion": 14.49579409,
        "meta_eccentricity": 0.0007144,
        "meta_inclination": 86.3923,
        "meta_ra_of_asc_node": 47.0023,
        "meta_arg_of_pericenter": 195.7966,
        "meta_mean_anomaly": 178.807,
        "meta_ephemeris_type": 0,
        "meta_classification_type": "U",
        "meta_norad_cat_id": 33966,
        "meta_element_set_no": 999,
        "meta_rev_at_epoch": 88409,
        "meta_bstar": 0.00084014,
        "meta_mean_motion_dot": 3.244e-05,
        "meta_mean_motion_ddot": 0,
        "tle_line1": "1 33966U 97051CB  25344.46750409  .00003244  00000+0  84014-3 0  9994",
        "tle_line2": "2 33966  86.3923  47.0023 0007144 195.7966 178.8070 14.49579409884097"
      },
      "geometry": {
        "type": "Point",
        "coordinates": [
          -120.40503216461201,
          -74.02392492488919
        ]
      }
    },
    {
      "type": "Feature",
      "properties": {
        "norad_id": 34071,
        "name": "IRIDIUM 33 DEB",
        "group": "iridium-33-debris",
        "lat": -38.45080607681328,
        "lon": 15.767121631560897,
        "alt_km": 740.0997731126454,
        "timestamp": "2025-12-10T18:57:00.450196+00:00",
        "meta_object_name": "IRIDIUM 33 DEB",
        "meta_object_id": "1997-051CE",
        "meta_epoch": "2025-12-10T10:50:36.682944",
        "meta_mean_motion": 14.4944829,
        "meta_eccentricity": 0.0009857,
        "meta_inclination": 86.3457,
        "meta_ra_of_asc_node": 18.8226,
        "meta_arg_of_pericenter": 113.7081,
        "meta_mean_anomaly": 246.5159,
        "meta_ephemeris_type": 0,
        "meta_classification_type": "U",
        "meta_norad_cat_id": 34071,
        "meta_element_set_no": 999,
        "meta_rev_at_epoch": 88301,
        "meta_bstar": 0.00086211,
        "meta_mean_motion_dot": 3.32e-05,
        "meta_mean_motion_ddot": 0,
        "tle_line1": "1 34071U 97051CE  25344.45181346  .00003320  00000+0  86211-3 0  9995",
        "tle_line2": "2 34071  86.3457  18.8226 0009857 113.7081 246.5159 14.49448290883014"
      },
      "geometry": {
        "type": "Point",
        "coordinates": [
          15.767121631560897,
          -38.45080607681328
        ]
      }
    },
    {
      "type": "Feature",
      "properties": {
        "norad_id": 34077,
        "name": "IRIDIUM 33 DEB",
        "group": "iridium-33-debris",
        "lat": 56.11754490134889,
        "lon": 57.76689236145246,
        "alt_km": 665.2165993330218,
        "timestamp": "2025-12-10T18:57:00.450206+00:00",
        "meta_object_name": "IRIDIUM 33 DEB",
        "meta_object_id": "1997-051CL",
        "meta_epoch": "2025-12-10T05:52:42.153312",
        "meta_mean_motion": 14.64781175,
        "meta_eccentricity": 0.0010464,
        "meta_inclination": 86.3859,
        "meta_ra_of_asc_node": 52.6061,
        "meta_arg_of_pericenter": 47.385,
        "meta_mean_anomaly": 18.7078,
        "meta_ephemeris_type": 0,
        "meta_classification_type": "U",
        "meta_norad_cat_id": 34077,
        "meta_element_set_no": 999,
        "meta_rev_at_epoch": 88296,
        "meta_bstar": 0.00232,
        "meta_mean_motion_dot": 0.00012409,
        "meta_mean_motion_ddot": 0,
        "tle_line1": "1 34077U 97051CL  25344.24493233  .00012409  00000+0  23200-2 0  9995",
        "tle_line2": "2 34077  86.3859  52.6061 0010464  47.3850  18.7078 14.64781175882962"
      },
      "geometry": {
        "type": "Point",
        "coordinates": [
          57.76689236145246,
          56.11754490134889
        ]
      }
    }
  ]
}